FENGYUN 3D              
1 43010U 17072A   26154.89808652  .00000237  00000+0  13399-3 0  9998
2 43010  99.0122 129.0805 0002621  83.7404 276.4070 14.19737191443106
NOAA 20 (JPSS-1)        
1 43013U 17073A   26154.89085722  .00000061  00000+0  49767-4 0  9991
2 43013  98.7770  94.4718 0000656  35.7306 324.3914 14.19509119442584
GOES 17                 
1 43226U 18022A   26154.90571601 -.00000171  00000+0  00000+0 0  9995
2 43226   0.9040  85.9584 0000761   4.0171  38.9536  1.00271800 30295
SENTINEL-3B             
1 43437U 18039A   26154.16373391  .00000141  00000+0  76454-4 0  9998
2 43437  98.6251 221.8966 0000991  74.7184 285.4106 14.26737564422120
FENGYUN 2H              
1 43491U 18050A   26154.93917998 -.00000120  00000+0  00000+0 0  9990
2 43491   2.9977  79.2257 0001417 127.2761 103.4520  1.00272047 29300
METOP-C                 
1 43689U 18087A   26154.90558688  .00000126  00000+0  77220-4 0  9991
2 43689  98.6649 214.7514 0001239 143.9095 216.2167 14.21508383392941
GEO-KOMPSAT-2A          
1 43823U 18100A   26154.73497059 -.00000332  00000+0  00000+0 0  9999
2 43823   0.0517 140.6437 0002341 302.9772 201.4258  1.00270341 27492
METEOR-M2 2             
1 44387U 19038A   26154.89788646 -.00000035  00000+0  47874-5 0  9994
2 44387  98.9139 141.9874 0002353  68.0951 292.0477 14.24361669359407
ARKTIKA-M 1             
1 47719U 21016A   26153.03917935 -.00000200  00000+0  00000+0 0  9993
2 47719  63.2379  59.8266 7283239 269.8643  14.6915  2.00628509 38489
FENGYUN 3E              
1 49008U 21062A   26154.88344021 -.00000202  00000+0 -74257-4 0  9994
2 49008  98.7489 158.4394 0002645 107.1516 252.9950 14.19902321254690
GOES 18                 
1 51850U 22021A   26154.75369068  .00000109  00000+0  00000+0 0  9996
2 51850   0.0408 139.6128 0000607 335.9891 270.9368  1.00271500  6450
NOAA 21 (JPSS-2)        
1 54234U 22150A   26154.85376017  .00000083  00000+0  60078-4 0  9998
2 54234  98.7058  93.8670 0000893 190.0360 170.0799 14.19562951184659
METEOSAT-12 (MTG-I1)    
1 54743U 22170C   26154.92331868  .00000003  00000+0  00000+0 0  9994
2 54743   0.7239  20.7384 0003590  69.2200 134.3922  1.00271356 12840
TIANMU-1 03             
1 55973U 23039A   26154.92023530  .00016278  00000+0  32524-3 0  9990
2 55973  97.5230 328.3743 0004024 131.4939 228.6657 15.46887206178781
TIANMU-1 04             
1 55974U 23039B   26154.91477659  .00017118  00000+0  33506-3 0  9990
2 55974  97.5167 327.5217 0004733 129.6734 230.4934 15.47471001178790
TIANMU-1 05             
1 55975U 23039C   26154.96505988  .00016438  00000+0  32921-3 0  9997
2 55975  97.5214 328.0405 0003525 147.2422 212.9046 15.46818309178779
TIANMU-1 06             
1 55976U 23039D   26154.91735373  .00016963  00000+0  33313-3 0  9995
2 55976  97.5219 328.6136 0003930 143.3046 216.8473 15.47380456178798
FENGYUN 3G              
1 56232U 23055A   26154.91792007  .00028121  00000+0  42886-3 0  9990
2 56232  49.9934  54.4511 0005548 142.5701 217.5654 15.54176971177944
METEOR-M2 3             
1 57166U 23091A   26154.95941652  .00000016  00000+0  25918-4 0  9994
2 57166  98.6087 210.2077 0003587 191.9540 168.1554 14.24045656152630
TIANMU-1 07             
1 57399U 23101A   26154.95205745  .00007080  00000+0  24900-3 0  9997
2 57399  97.2594 205.9254 0003208 149.1719 210.9711 15.29645802159629
TIANMU-1 08             
1 57400U 23101B   26154.91873609  .00006901  00000+0  24271-3 0  9998
2 57400  97.2582 205.6656 0004807 148.3182 211.8349 15.29650927159613
TIANMU-1 09             
1 57401U 23101C   26154.90239884  .00007272  00000+0  25542-3 0  9993
2 57401  97.2541 205.0722 0003550 158.2115 201.9277 15.29676783159615
TIANMU-1 10             
1 57402U 23101D   26154.93520157  .00006838  00000+0  24053-3 0  9996
2 57402  97.2620 206.1412 0005135 162.4849 197.6570 15.29647587159611
FENGYUN 3F              
1 57490U 23111A   26154.93812994  .00000064  00000+0  50657-4 0  9992
2 57490  98.6837 225.1933 0001554 103.0292 257.1059 14.19936699146989
ARKTIKA-M 2             
1 58584U 23198A   26152.80817955  .00000145  00000+0  00000+0 0  9990
2 58584  63.2208 156.0807 6898127 267.4735  18.7853  2.00592153 18014
TIANMU-1 11             
1 58645U 23205A   26154.94686928  .00006275  00000+0  24027-3 0  9997
2 58645  97.3448 176.7127 0010367  58.9829 301.2427 15.26850137135505
TIANMU-1 12             
1 58646U 23205B   26154.98244372  .00006260  00000+0  24012-3 0  9993
2 58646  97.3436 176.5063 0008264  46.5588 313.6337 15.26811314135497
TIANMU-1 13             
1 58647U 23205C   26154.94782431  .00006362  00000+0  24509-3 0  9997
2 58647  97.3464 176.7427 0007536  28.8203 331.3451 15.26665482135489
TIANMU-1 14             
1 58648U 23205D   26154.93341769  .00006488  00000+0  24952-3 0  9993
2 58648  97.3401 175.9207 0008540  32.0317 328.1439 15.26710497135484
TIANMU-1 19             
1 58660U 23208A   26154.89254588  .00008879  00000+0  29558-3 0  9990
2 58660  97.4498 271.1276 0004991  20.7212 339.4230 15.31361981135293
