OBJECT_NAME,OBJECT_ID,EPOCH,MEAN_MOTION,ECCENTRICITY,INCLINATION,RA_OF_ASC_NODE,ARG_OF_PERICENTER,MEAN_ANOMALY,EPHEMERIS_TYPE,CLASSIFICATION_TYPE,NORAD_CAT_ID,ELEMENT_SET_NO,REV_AT_EPOCH,BSTAR,MEAN_MOTION_DOT,MEAN_MOTION_DDOT
FENGYUN 3D,2017-072A,2026-06-03T21:33:14.675328,14.19737191,.00026219,99.0122,129.0805,83.7404,276.4070,0,U,43010,999,44310,.13398824E-3,.237E-5,0
NOAA 20 (JPSS-1),2017-073A,2026-06-03T21:22:50.063808,14.19509119,.00006569,98.7770,94.4718,35.7306,324.3914,0,U,43013,999,44258,.49766797E-4,.61E-6,0
GOES 17,2018-022A,2026-06-03T21:44:13.863264,1.00271800,.00007616,0.9040,85.9584,4.0171,38.9536,0,U,43226,999,3029,0,-.171E-5,0
SENTINEL-3B,2018-039A,2026-06-03T03:55:46.609824,14.26737564,.0000991,98.6251,221.8966,74.7184,285.4106,0,U,43437,999,42212,.76454024E-4,.141E-5,0
FENGYUN 2H,2018-050A,2026-06-03T22:32:25.150272,1.00272047,.00014179,2.9977,79.2257,127.2761,103.4520,0,U,43491,999,2930,0,-.12E-5,0
METOP-C,2018-087A,2026-06-03T21:44:02.706432,14.21508383,.00012396,98.6649,214.7514,143.9095,216.2167,0,U,43689,999,39294,.77220125E-4,.126E-5,0
GEO-KOMPSAT-2A,2018-100A,2026-06-03T17:38:21.458976,1.00270341,.0002341,0.0517,140.6437,302.9772,201.4258,0,U,43823,999,2749,0,-.332E-5,0
METEOR-M2 2,2019-038A,2026-06-03T21:32:57.390144,14.24361669,.00023538,98.9139,141.9874,68.0951,292.0477,0,U,44387,999,35940,.4787372E-5,-.35E-6,0
ARKTIKA-M 1,2021-016A,2026-06-02T00:56:25.095840,2.00628509,.72832396,63.2379,59.8266,269.8643,14.6915,0,U,47719,999,3848,0,-.2E-5,0
FENGYUN 3E,2021-062A,2026-06-03T21:12:09.234144,14.19902321,.0002645,98.7489,158.4394,107.1516,252.9950,0,U,49008,999,25469,-.74256902E-4,-.202E-5,0
GOES 18,2022-021A,2026-06-03T18:05:18.874752,1.00271500,.00006077,0.0408,139.6128,335.9891,270.9368,0,U,51850,999,645,0,.109E-5,0
NOAA 21 (JPSS-2),2022-150A,2026-06-03T20:29:24.878688,14.19562951,.00008935,98.7058,93.8670,190.0360,170.0799,0,U,54234,999,18465,.6007775E-4,.83E-6,0
METEOSAT-12 (MTG-I1),2022-170C,2026-06-03T22:09:34.733952,1.00271356,.00035907,0.7239,20.7384,69.2200,134.3922,0,U,54743,999,1284,0,.3E-7,0
TIANMU-1 03,2023-039A,2026-06-03T22:05:08.329920,15.46887206,.00040246,97.5230,328.3743,131.4939,228.6657,0,U,55973,999,17878,.32524148E-3,.16278E-3,0
TIANMU-1 04,2023-039B,2026-06-03T21:57:16.697376,15.47471001,.00047336,97.5167,327.5217,129.6734,230.4934,0,U,55974,999,17879,.33505904E-3,.17118E-3,0
TIANMU-1 05,2023-039C,2026-06-03T23:09:41.173632,15.46818309,.00035251,97.5214,328.0405,147.2422,212.9046,0,U,55975,999,17877,.32920774E-3,.16438E-3,0
TIANMU-1 06,2023-039D,2026-06-03T22:00:59.362272,15.47380456,.00039308,97.5219,328.6136,143.3046,216.8473,0,U,55976,999,17879,.33312556E-3,.16963E-3,0
FENGYUN 3G,2023-055A,2026-06-03T22:01:48.294048,15.54176971,.00055489,49.9934,54.4511,142.5701,217.5654,0,U,56232,999,17794,.42886159E-3,.28121E-3,0
METEOR-M2 3,2023-091A,2026-06-03T23:01:33.587328,14.24045656,.00035874,98.6087,210.2077,191.9540,168.1554,0,U,57166,999,15263,.25918123E-4,.16E-6,0
TIANMU-1 07,2023-101A,2026-06-03T22:50:57.763680,15.29645802,.00032084,97.2594,205.9254,149.1719,210.9711,0,U,57399,999,15962,.24899936E-3,.708E-4,0
TIANMU-1 08,2023-101B,2026-06-03T22:02:58.798176,15.29650927,.00048071,97.2582,205.6656,148.3182,211.8349,0,U,57400,999,15961,.24271167E-3,.6901E-4,0
TIANMU-1 09,2023-101C,2026-06-03T21:39:27.259776,15.29676783,.00035506,97.2541,205.0722,158.2115,201.9277,0,U,57401,999,15961,.25541563E-3,.7272E-4,0
TIANMU-1 10,2023-101D,2026-06-03T22:26:41.415648,15.29647587,.00051354,97.2620,206.1412,162.4849,197.6570,0,U,57402,999,15961,.24053485E-3,.6838E-4,0
FENGYUN 3F,2023-111A,2026-06-03T22:30:54.426816,14.19936699,.00015547,98.6837,225.1933,103.0292,257.1059,0,U,57490,999,14698,.50657043E-4,.64E-6,0
ARKTIKA-M 2,2023-198A,2026-06-01T19:23:46.713120,2.00592153,.68981271,63.2208,156.0807,267.4735,18.7853,0,U,58584,999,1801,0,.145E-5,0
TIANMU-1 11,2023-205A,2026-06-03T22:43:29.505792,15.26850137,.00103675,97.3448,176.7127,58.9829,301.2427,0,U,58645,999,13550,.24027349E-3,.6275E-4,0
TIANMU-1 12,2023-205B,2026-06-03T23:34:43.137408,15.26811314,.0008264,97.3436,176.5063,46.5588,313.6337,0,U,58646,999,13549,.2401228E-3,.626E-4,0
TIANMU-1 13,2023-205C,2026-06-03T22:44:52.020384,15.26665482,.00075366,97.3464,176.7427,28.8203,331.3451,0,U,58647,999,13548,.24508587E-3,.6362E-4,0
TIANMU-1 14,2023-205D,2026-06-03T22:24:07.288416,15.26710497,.00085401,97.3401,175.9207,32.0317,328.1439,0,U,58648,999,13548,.24951551E-3,.6488E-4,0
TIANMU-1 19,2023-208A,2026-06-03T21:25:15.964032,15.31361981,.00049916,97.4498,271.1276,20.7212,339.4230,0,U,58660,999,13529,.29558455E-3,.8879E-4,0
